ONEWEB-0199             
1 48234U 21031AA  24192.58393859  .00000142  00000+0  34976-3 0  9994
2 48234  87.8948  70.2666 0002009  76.7036 283.4317 13.14503000155437
ONEWEB-0203             
1 48235U 21031AB  24192.42218433  .00000229  00000+0  58309-3 0  9994
2 48235  87.8948  70.3003 0002064  67.3682 292.7666 13.14501844155421
ONEWEB-0197             
1 48236U 21031AC  24192.39760450 -.00000037  00000+0 -13312-3 0  9996
2 48236  87.8950  70.3138 0002005  89.5492 270.5868 13.14502202155331
ONEWEB-0194             
1 48237U 21031AD  24192.37619860 -.00000170  00000+0 -49392-3 0  9998
2 48237  87.8952  70.3112 0002043  74.1930 285.9425 13.14502965155509
ONEWEB-0193             
1 48238U 21031AE  24192.39205128 -.00000154  00000+0 -45063-3 0  9992
2 48238  87.8950  70.3162 0001785  75.1287 285.0040 13.14502266155453
ONEWEB-0191             
1 48239U 21031AF  24192.63150711  .00000024  00000+0  31548-4 0  9995
2 48239  87.8946  70.2514 0001800  76.3034 283.8296 13.14502057155345
ONEWEB-0195             
1 48240U 21031AG  24192.60852165 -.00000222  00000+0 -63319-3 0  9998
2 48240  87.8947  70.2552 0001430  73.3026 286.8260 13.14502759155328
ONEWEB-0201             
1 48241U 21031AH  24192.36905138 -.00000048  00000+0 -16414-3 0  9991
2 48241  87.8950  70.3383 0001670  79.4161 280.7157 13.14501648155525
